{
  "norad_id": 44344,
  "name": "DSX",
  "history": [
    {
      "epoch": "2026-03-26T00:27:09.155808Z",
      "apogee_km": 12051.642551737863,
      "perigee_km": 5987.628106338586,
      "latitude_deg": -6.441456127293856e-06,
      "longitude_deg": -169.19430345780066,
      "height_km": 6107.645407322961,
      "semi_major_axis_km": 15397.772329038224,
      "eccentricity": 0.19691207,
      "inclination_deg": 42.3213,
      "raan_deg": 21.0725,
      "arg_perigee_deg": 340.1487,
      "mean_anomaly_deg": 13.1582,
      "mean_motion_rev_day": 4.54376562
    }
  ]
}